{"fetched_at":"2026-07-11T09:24:45.458Z","source":"https://celestrak.org/NORAD/elements/gp.php?NAME=TIGER&FORMAT=JSON","constellation":"oq-technology","records":[{"OBJECT_NAME":"TIGER-8","OBJECT_ID":"2024-043Y","EPOCH":"2026-07-09T22:53:10.511232","CLASSIFICATION_TYPE":"U","MEAN_MOTION":15.45105714,"ECCENTRICITY":0.0008787,"INCLINATION":97.5563,"RA_OF_ASC_NODE":340.4881,"ARG_OF_PERICENTER":118.5314,"MEAN_ANOMALY":241.682,"EPHEMERIS_TYPE":0,"NORAD_CAT_ID":59120,"ELEMENT_SET_NO":999,"REV_AT_EPOCH":13130,"BSTAR":0.00017757634,"MEAN_MOTION_DOT":0.00008319,"MEAN_MOTION_DDOT":0},{"OBJECT_NAME":"TIGER-7","OBJECT_ID":"2024-043AV","EPOCH":"2026-07-09T16:17:43.334592","CLASSIFICATION_TYPE":"U","MEAN_MOTION":15.49263141,"ECCENTRICITY":0.00068625,"INCLINATION":97.5505,"RA_OF_ASC_NODE":342.6786,"ARG_OF_PERICENTER":92.1096,"MEAN_ANOMALY":268.0941,"EPHEMERIS_TYPE":0,"NORAD_CAT_ID":59141,"ELEMENT_SET_NO":999,"REV_AT_EPOCH":13145,"BSTAR":0.00016996526,"MEAN_MOTION_DOT":0.0000919,"MEAN_MOTION_DDOT":0}]}
