TIGER-8                 
1 59120U 24043Y   26190.95359388  .00008319  00000+0  17758-3 0  9999
2 59120  97.5563 340.4881 0008787 118.5314 241.6820 15.45105714131309
TIGER-7                 
1 59141U 24043AV  26190.67897378  .00009190  00000+0  16997-3 0  9999
2 59141  97.5505 342.6786 0006862  92.1096 268.0941 15.49263141131458
